CELESTIS-02             
1 25160U 98007D   08237.49487961 -.00000094  00000-0  15997-4 0  8365
2 25160 107.9870 206.7262 0061232 115.3465 245.4022 14.20815928546309
CELESTIS-03             
1 26034U 99070C   08237.52943336  .00000079  00000-0  18310-4 0  3228
2 26034  98.3666 230.7743 0017724 217.4125 142.5847 14.79532436466454
AMC-14                  
1 32708U 08011A   08237.56090905 -.00000096  00000-0  00000+0 0  1890
2 32708  17.2173 137.7909 1636442  26.6737 277.6939  1.24779046  2809
